OPTICUBE 04             
1 41851U 16067D   19148.48893110  .00000616  00000-0  59093-4 0  9999
2 41851  97.9151 245.8457 0010655  95.7185 264.5251 14.96800915138741
AEROCUBE 8D             
1 41852U 16067E   19147.82182690  .00000692  00000-0  65859-4 0  9992
2 41852  97.9161 244.9958 0011427  97.8929 262.3590 14.96704781138629
AEROCUBE 8C             
1 41853U 16067F   19148.17847471 -.00000375  00000-0 -27512-4 0  9991
2 41853  97.9159 245.2952 0011411  96.9571 263.2948 14.96669035138675
PROMETHEUS 2-1          
1 41854U 16067G   19148.21577598  .00000840  00000-0  78404-4 0  9998
2 41854  97.9165 245.4570 0012051  97.9806 262.2783 14.96877287138681
PROMETHEUS 2-3          
1 41855U 16067H   19147.81710391  .00000847  00000-0  79068-4 0  9998
2 41855  97.9168 245.0683 0012251  99.3798 260.8809 14.96882226138620
INS-1B                  
1 41954U 17008G   19148.15534072  .00000809  00000-0  36427-4 0  9992
2 41954  97.4010 213.4789 0008247 212.0831 147.9905 15.23890329126521
BGUSAT                  
1 41999U 17008BD  19148.16976285  .00001378  00000-0  56379-4 0  9998
2 41999  97.4081 215.7688 0006857 226.1755 133.8917 15.26023437126019
DIDO-2                  
1 42000U 17008BE  19147.88120685  .00000568  00000-0  26464-4 0  9997
2 42000  97.4023 213.7522 0007118 234.2636 125.7940 15.23856481125883
PEASSS                  
1 42015U 17008BV  19147.72738798  .00000832  00000-0  36393-4 0  9992
2 42015  97.4030 214.5219 0004893 238.8029 121.2729 15.24809824126407
AL-FARABI 1             
1 42016U 17008BW  19147.73523811  .00001016  00000-0  43060-4 0  9996
2 42016  97.4045 215.0447 0004778 237.2123 122.8655 15.25429213126555
NAYIF-1 (EO-88)         
1 42017U 17008BX  19147.85441933  .00000933  00000-0  39728-4 0  9997
2 42017  97.4041 215.1723 0004755 236.8167 123.2616 15.25461325126594
PHOENIX                 
1 42706U 98067LP  19128.42254485  .08245211  12410-4  57150-3 0  9990
2 42706  51.5998 109.6560 0003143 270.9046 228.4560 16.40380041113340
ALTAIR PATHFINDER       
1 42711U 98067LS  19148.09149817  .00031391  00000-0  17376-3 0  9991
2 42711  51.6358  41.6992 0003370  80.1747 279.9635 15.79287702115675
SHARC                   
1 42712U 98067LT  19123.64217769  .08981558  12375-4  84912-3 0  9997
2 42712  51.6192 152.4129 0003348 312.8737 146.7300 16.37776182112255
ZA-AEROSAT              
1 42713U 98067LU  19148.08363453  .01006837  11831-4  52298-3 0  9994
2 42713  51.6209  12.5988 0009231 262.0758  97.9212 16.19485555116041
NJUST-1                 
1 42722U 98067MB  19148.21262822  .00093587  14663-4  24155-3 0  9991
2 42722  51.6321  22.5616 0004161 131.3272 326.7408 15.95103684115009
NSIGHT                  
1 42726U 98067MF  19148.14600902  .00017194  00000-0  14122-3 0  9991
2 42726  51.6370  58.8548 0005996  93.8460 266.3223 15.70548528114434
UCLSAT                  
1 42765U 17036A   19147.91701495  .00000710  00000-0  33422-4 0  9995
2 42765  97.3524 206.3905 0010067 312.3402  47.6981 15.22690248107743
LITUANICASAT-2          
1 42768U 17036D   19147.69916194  .00001359  00000-0  61204-4 0  9996
2 42768  97.3561 205.7679 0013501 300.7204  59.2702 15.22705374106965
AALTO-1                 
1 42775U 17036L   19148.21991340  .00000551  00000-0  27676-4 0  9997
2 42775  97.3512 205.4858 0012447 299.2255  60.7735 15.21301522106948
URSA MAIOR              
1 42776U 17036M   19147.72212789  .00000576  00000-0  28652-4 0  9998
2 42776  97.3521 205.1400 0012299 301.1741  58.8288 15.21429983106872
COMPASS 2               
1 42777U 17036N   19147.71896132  .00001122  00000-0  50902-4 0  9999
2 42777  97.3558 206.2444 0010977 302.8642  57.1537 15.22818774106928
DIAMOND RED             
1 42783U 17036U   19148.15177767  .00000607  00000-0  29449-4 0  9990
2 42783  97.3526 206.2403 0010763 312.0248  48.0071 15.22153352106974
PEGASUS                 
1 42784U 17036V   19148.39786204  .00000817  00000-0  38280-4 0  9995
2 42784  97.3530 206.6897 0010635 310.6437  49.3875 15.22441370107026
DIAMOND GREEN           
1 42785U 17036W   19147.88764572  .00000612  00000-0  29660-4 0  9998
2 42785  97.3529 206.0052 0010688 313.8461  46.1891 15.22153715107006
DIAMOND BLUE            
1 42786U 17036X   19148.14965354  .00000607  00000-0  29437-4 0  9996
2 42786  97.3528 206.2600 0010522 313.1569  46.8787 15.22151733106969
NUDTSAT                 
1 42787U 17036Y   19148.54037530  .00001025  00000-0  46027-4 0  9996
2 42787  97.3540 207.4702 0010042 308.8179  51.2164 15.23377313106925
SUCHAI                  
1 42788U 17036Z   19147.81932019  .00000817  00000-0  37836-4 0  9998
2 42788  97.3534 206.4075 0010231 312.3780  47.6590 15.22844898107029
SKCUBE                  
1 42789U 17036AA  19147.83368649  .00000855  00000-0  39577-4 0  9999
2 42789  97.3530 206.3688 0010095 312.4409  47.5973 15.22749523106945
VZLUSAT-1               
1 42790U 17036AB  19147.73897721  .00001130  00000-0  50444-4 0  9991
2 42790  97.3545 206.6889 0009619 312.1230  47.9189 15.23377524106951
ROBUSTA-1B              
1 42792U 17036AD  19148.16114864  .00000783  00000-0  36310-4 0  9990
2 42792  97.3531 206.8311 0009662 312.2166  47.8250 15.22913135107016
CICERO 6                
1 42793U 17036AE  19148.21545836  .00000641  00000-0  30581-4 0  9991
2 42793  97.3516 206.6888 0008996 314.5367  45.5134 15.22533280107086
D-SAT                   
1 42794U 17036AF  19148.13201824  .00000285  00000-0  30296-4 0  9996
2 42794  97.5414 193.7818 0125769 212.9104 146.4241 14.91082505105120
TOKI                    
1 42820U 98067MU  19123.10626650  .20777511  12651-4  37226-3 0  9990
2 42820  51.6051 142.7539 0005305 301.2009  59.2873 16.47402492104441
MAZAALAI (NUMSAT-1)     
1 42822U 98067MW  19131.43194823  .10190864  12355-4  76666-3 0  9990
2 42822  51.6054 100.7046 0005179 246.5694 204.7401 16.39672911105736
BRAC ONNESHA            
1 42823U 98067MX  19126.46325411  .10871672  12483-4  53364-3 0  9992
2 42823  51.6136 126.1830 0002073 268.7751  91.3478 16.43067843104944
NIGERIAEDUSAT-1         
1 42824U 98067MY  19133.12526632  .12220275  12529-4  51637-3 0  9993
2 42824  51.6091  92.5367 0003545 299.4874 174.6355 16.43636834105973
CORVUS BC2              
1 42846U 17042X   19147.74817940 -.00000036  00000-0  17641-5 0  9994
2 42846  97.5682  42.6224 0010904 122.9448 237.2821 14.91964915101744
CORVUS BC1              
1 42847U 17042Y   19148.50764610  .00000164  00000-0  21375-4 0  9994
2 42847  97.5684  43.4548 0010590 120.0563 240.1708 14.92064880101855
MIRATA                  
1 43015U 17073C   19147.83094001  .00000359  00000-0  34053-4 0  9994
2 43015  97.7199  69.8964 0254294 228.8392 129.0634 14.78942937 82064
MAKERSAT 0              
1 43016U 17073D   19147.77385025  .00000265  00000-0  26617-4 0  9990
2 43016  97.7233  70.0391 0256457 229.3378 128.5290 14.78708345 82048
ASTERIA                 
1 43020U 98067NH  19148.22109234  .00019431  00000-0  16479-3 0  9993
2 43020  51.6431  69.2960 0003053  62.8725 297.2584 15.69682445 86487
DELLINGR (RBLE)         
1 43021U 98067NJ  19148.41949908  .00006957  00000-0  81545-4 0  9991
2 43021  51.6386  79.5210 0002840  42.5468 317.5746 15.62788525 86363
AEROCUBE 7B (OCSD B)    
1 43042U 17071F   19147.91086304  .00001761  00000-0  51673-4 0  9993
2 43042  51.6382 159.3952 0005154  74.2463 285.9090 15.41059082 82722
AEROCUBE 7C (OCSD C)    
1 43043U 17071G   19148.17032691  .00001810  00000-0  52823-4 0  9996
2 43043  51.6383 158.1413 0005370  78.9496 281.2093 15.41065549 82738
CHEFSAT                 
1 43044U 17071H   19148.19676718  .00003770  00000-0  91522-4 0  9999
2 43044  51.6373 153.1759 0005208  75.4034 284.7530 15.43631663 82806
ASGARDIA 1              
1 43049U 17071N   19148.18888181  .00001796  00000-0  52250-4 0  9993
2 43049  51.6390 157.5419 0002857  92.3603 267.7709 15.41195989 82733
ISARA                   
1 43050U 17071P   19148.46461267  .00003669  00000-0  90778-4 0  9996
2 43050  51.6366 152.6759 0002702  85.3151 274.8144 15.43124441 82829
PROPCUBE 2 (FAUNA)      
1 43052U 17071R   19147.87425218  .00001643  00000-0  48238-4 0  9992
2 43052  51.6389 158.4585 0002812  87.7623 272.3684 15.41461038 82690
CORVUS BC3              
1 43118U 18004H   19148.18445334  .00000548  00000-0  26463-4 0  9997
2 43118  97.4877 215.6109 0009620 336.0636  24.0152 15.22808992 76204
MICROMAS-2A             
1 43131U 18004W   19147.74883769  .00001312  00000-0  57086-4 0  9996
2 43131  97.4901 215.8145 0008632 340.7586  19.3324 15.24040973 76170
CICERO 7                
1 43143U 18004AJ  19148.16818265  .00000934  00000-0  41301-4 0  9997
2 43143  97.4887 216.4469 0007075 351.9068   8.2053 15.24187299 76259
GOMX-4B                 
1 43196U 18015E   19148.49531088  .00000198  00000-0  11113-4 0  9998
2 43196  97.3861 276.3383 0020095  24.7836 335.4349 15.23924760 73119
GOMX-4A                 
1 43197U 18015F   19148.42588333  .00000191  00000-0  10804-4 0  9996
2 43197  97.3889 276.2941 0020046  27.5719  45.0684 15.24016785 73112
1KUNS-PF                
1 43466U 98067NP  19148.27853652  .00016924  00000-0  17102-3 0  9990
2 43466  51.6373  83.0581 0002032  68.3377 291.7835 15.65448344 59560
UBAKUSAT                
1 43467U 98067NQ  19148.24352029  .00009167  00000-0  10730-3 0  9991
2 43467  51.6373  86.5718 0002632  18.5086 341.6003 15.62363014 59526
BATSU-CS1 (IRAZU)       
1 43468U 98067NR  19148.17698472  .00023040  00000-0  20836-3 0  9993
2 43468  51.6366  80.8619 0002281  74.9741 285.1507 15.67987062159577
CUBERRT                 
1 43546U 98067NU  19147.34236198  .00016939  00000-0  18430-3 0  9997
2 43546  51.6378  92.5499 0006420  53.4855 306.6730 15.63549584 49495
TEMPEST-D               
1 43547U 98067NV  19148.10953825  .00002240  00000-0  36407-4 0  9991
2 43547  51.6388  94.6714 0006463  45.8909 314.2614 15.57622575 49213
